CCSDS_OMM_VERS = 2.0
CREATION_DATE  = 
ORIGINATOR     = 

OBJECT_NAME    = STARLINK-36557
OBJECT_ID      = 2026-012H
CENTER_NAME    = EARTH
REF_FRAME      = TEME
TIME_SYSTEM    = UTC
MEAN_ELEMENT_THEORY = SGP/SGP4

EPOCH          = 2026-02-07T06:00:02.999808
MEAN_MOTION    = 15.69625825
ECCENTRICITY   = .00013977
INCLINATION    = 42.9997
RA_OF_ASC_NODE = 128.1775
ARG_OF_PERICENTER = 279.3119
MEAN_ANOMALY   = 129.7714

EPHEMERIS_TYPE = 0
CLASSIFICATION_TYPE = U
NORAD_CAT_ID   = 67500
ELEMENT_SET_NO = 999
REV_AT_EPOCH   = 417
BSTAR          = -.17761956E-1
MEAN_MOTION_DOT = -.1919913E-1
MEAN_MOTION_DDOT = 0

CCSDS_OMM_VERS = 2.0
CREATION_DATE  = 
ORIGINATOR     = 

OBJECT_NAME    = STARLINK-36433
OBJECT_ID      = 2026-012J
CENTER_NAME    = EARTH
REF_FRAME      = TEME
TIME_SYSTEM    = UTC
MEAN_ELEMENT_THEORY = SGP/SGP4

EPOCH          = 2026-02-07T06:00:02.999808
MEAN_MOTION    = 15.69996356
ECCENTRICITY   = .00014579
INCLINATION    = 42.9997
RA_OF_ASC_NODE = 128.1577
ARG_OF_PERICENTER = 277.5178
MEAN_ANOMALY   = 139.5692

EPHEMERIS_TYPE = 0
CLASSIFICATION_TYPE = U
NORAD_CAT_ID   = 67501
ELEMENT_SET_NO = 999
REV_AT_EPOCH   = 417
BSTAR          = -.17585806E-1
MEAN_MOTION_DOT = -.1929544E-1
MEAN_MOTION_DDOT = 0

CCSDS_OMM_VERS = 2.0
CREATION_DATE  = 
ORIGINATOR     = 

OBJECT_NAME    = STARLINK-36554
OBJECT_ID      = 2026-012K
CENTER_NAME    = EARTH
REF_FRAME      = TEME
TIME_SYSTEM    = UTC
MEAN_ELEMENT_THEORY = SGP/SGP4

EPOCH          = 2026-02-07T06:00:02.999808
MEAN_MOTION    = 15.65234700
ECCENTRICITY   = .00014691
INCLINATION    = 42.9993
RA_OF_ASC_NODE = 128.2941
ARG_OF_PERICENTER = 275.1611
MEAN_ANOMALY   = 87.0926

EPHEMERIS_TYPE = 0
CLASSIFICATION_TYPE = U
NORAD_CAT_ID   = 67502
ELEMENT_SET_NO = 999
REV_AT_EPOCH   = 411
BSTAR          = -.21092547E-1
MEAN_MOTION_DOT = -.1904605E-1
MEAN_MOTION_DDOT = 0

CCSDS_OMM_VERS = 2.0
CREATION_DATE  = 
ORIGINATOR     = 

OBJECT_NAME    = STARLINK-36552
OBJECT_ID      = 2026-012L
CENTER_NAME    = EARTH
REF_FRAME      = TEME
TIME_SYSTEM    = UTC
MEAN_ELEMENT_THEORY = SGP/SGP4

EPOCH          = 2026-02-07T06:00:02.999808
MEAN_MOTION    = 15.71014774
ECCENTRICITY   = .00013366
INCLINATION    = 42.9995
RA_OF_ASC_NODE = 128.1101
ARG_OF_PERICENTER = 277.4829
MEAN_ANOMALY   = 158.5351

EPHEMERIS_TYPE = 0
CLASSIFICATION_TYPE = U
NORAD_CAT_ID   = 67503
ELEMENT_SET_NO = 999
REV_AT_EPOCH   = 417
BSTAR          = -.16826874E-1
MEAN_MOTION_DOT = -.1927754E-1
MEAN_MOTION_DDOT = 0

CCSDS_OMM_VERS = 2.0
CREATION_DATE  = 
ORIGINATOR     = 

OBJECT_NAME    = STARLINK-36512
OBJECT_ID      = 2026-012M
CENTER_NAME    = EARTH
REF_FRAME      = TEME
TIME_SYSTEM    = UTC
MEAN_ELEMENT_THEORY = SGP/SGP4

EPOCH          = 2026-02-07T06:00:02.999808
MEAN_MOTION    = 15.69014237
ECCENTRICITY   = .00014171
INCLINATION    = 42.9997
RA_OF_ASC_NODE = 128.1480
ARG_OF_PERICENTER = 278.8498
MEAN_ANOMALY   = 141.7764

EPHEMERIS_TYPE = 0
CLASSIFICATION_TYPE = U
NORAD_CAT_ID   = 67504
ELEMENT_SET_NO = 999
REV_AT_EPOCH   = 417
BSTAR          = -.18319356E-1
MEAN_MOTION_DOT = -.1928919E-1
MEAN_MOTION_DDOT = 0

CCSDS_OMM_VERS = 2.0
CREATION_DATE  = 
ORIGINATOR     = 

OBJECT_NAME    = STARLINK-36545
OBJECT_ID      = 2026-012N
CENTER_NAME    = EARTH
REF_FRAME      = TEME
TIME_SYSTEM    = UTC
MEAN_ELEMENT_THEORY = SGP/SGP4

EPOCH          = 2026-02-07T06:00:02.999808
MEAN_MOTION    = 15.69574380
ECCENTRICITY   = .00013616
INCLINATION    = 42.9995
RA_OF_ASC_NODE = 128.1250
ARG_OF_PERICENTER = 277.5914
MEAN_ANOMALY   = 152.2819

EPHEMERIS_TYPE = 0
CLASSIFICATION_TYPE = U
NORAD_CAT_ID   = 67505
ELEMENT_SET_NO = 999
REV_AT_EPOCH   = 417
BSTAR          = -.17883357E-1
MEAN_MOTION_DOT = -.1927809E-1
MEAN_MOTION_DDOT = 0

CCSDS_OMM_VERS = 2.0
CREATION_DATE  = 
ORIGINATOR     = 

OBJECT_NAME    = STARLINK-36553
OBJECT_ID      = 2026-012P
CENTER_NAME    = EARTH
REF_FRAME      = TEME
TIME_SYSTEM    = UTC
MEAN_ELEMENT_THEORY = SGP/SGP4

EPOCH          = 2026-02-07T06:00:02.999808
MEAN_MOTION    = 15.70921701
ECCENTRICITY   = .00013372
INCLINATION    = 42.9993
RA_OF_ASC_NODE = 128.0802
ARG_OF_PERICENTER = 277.8473
MEAN_ANOMALY   = 170.0398

EPHEMERIS_TYPE = 0
CLASSIFICATION_TYPE = U
NORAD_CAT_ID   = 67506
ELEMENT_SET_NO = 999
REV_AT_EPOCH   = 417
BSTAR          = -.16868609E-1
MEAN_MOTION_DOT = -.1925229E-1
MEAN_MOTION_DDOT = 0

CCSDS_OMM_VERS = 2.0
CREATION_DATE  = 
ORIGINATOR     = 

OBJECT_NAME    = STARLINK-36521
OBJECT_ID      = 2026-012Q
CENTER_NAME    = EARTH
REF_FRAME      = TEME
TIME_SYSTEM    = UTC
MEAN_ELEMENT_THEORY = SGP/SGP4

EPOCH          = 2026-02-07T06:00:02.999808
MEAN_MOTION    = 15.70872723
ECCENTRICITY   = .00012413
INCLINATION    = 42.9993
RA_OF_ASC_NODE = 128.0672
ARG_OF_PERICENTER = 281.6990
MEAN_ANOMALY   = 171.1806

EPHEMERIS_TYPE = 0
CLASSIFICATION_TYPE = U
NORAD_CAT_ID   = 67507
ELEMENT_SET_NO = 999
REV_AT_EPOCH   = 417
BSTAR          = -.16893111E-1
MEAN_MOTION_DOT = -.1924084E-1
MEAN_MOTION_DDOT = 0

CCSDS_OMM_VERS = 2.0
CREATION_DATE  = 
ORIGINATOR     = 

OBJECT_NAME    = STARLINK-36526
OBJECT_ID      = 2026-012R
CENTER_NAME    = EARTH
REF_FRAME      = TEME
TIME_SYSTEM    = UTC
MEAN_ELEMENT_THEORY = SGP/SGP4

EPOCH          = 2026-02-07T06:00:02.999808
MEAN_MOTION    = 15.70861074
ECCENTRICITY   = .00012641
INCLINATION    = 42.9993
RA_OF_ASC_NODE = 128.0534
ARG_OF_PERICENTER = 276.2956
MEAN_ANOMALY   = 182.1046

EPHEMERIS_TYPE = 0
CLASSIFICATION_TYPE = U
NORAD_CAT_ID   = 67508
ELEMENT_SET_NO = 999
REV_AT_EPOCH   = 417
BSTAR          = -.16982734E-1
MEAN_MOTION_DOT = -.1932292E-1
MEAN_MOTION_DDOT = 0

CCSDS_OMM_VERS = 2.0
CREATION_DATE  = 
ORIGINATOR     = 

OBJECT_NAME    = STARLINK-36541
OBJECT_ID      = 2026-012S
CENTER_NAME    = EARTH
REF_FRAME      = TEME
TIME_SYSTEM    = UTC
MEAN_ELEMENT_THEORY = SGP/SGP4

EPOCH          = 2026-02-07T06:00:02.999808
MEAN_MOTION    = 15.53091959
ECCENTRICITY   = .00007259
INCLINATION    = 42.9989
RA_OF_ASC_NODE = 128.7024
ARG_OF_PERICENTER = 273.9108
MEAN_ANOMALY   = 283.0364

EPHEMERIS_TYPE = 0
CLASSIFICATION_TYPE = U
NORAD_CAT_ID   = 67509
ELEMENT_SET_NO = 999
REV_AT_EPOCH   = 411
BSTAR          = -.40086711E-1
MEAN_MOTION_DOT = -.2264608E-1
MEAN_MOTION_DDOT = 0

CCSDS_OMM_VERS = 2.0
CREATION_DATE  = 
ORIGINATOR     = 

OBJECT_NAME    = STARLINK-36549
OBJECT_ID      = 2026-012T
CENTER_NAME    = EARTH
REF_FRAME      = TEME
TIME_SYSTEM    = UTC
MEAN_ELEMENT_THEORY = SGP/SGP4

EPOCH          = 2026-02-07T06:00:02.999808
MEAN_MOTION    = 15.69324602
ECCENTRICITY   = .00010173
INCLINATION    = 42.9989
RA_OF_ASC_NODE = 127.8646
ARG_OF_PERICENTER = 270.3987
MEAN_ANOMALY   = 261.5369

EPHEMERIS_TYPE = 0
CLASSIFICATION_TYPE = U
NORAD_CAT_ID   = 67510
ELEMENT_SET_NO = 999
REV_AT_EPOCH   = 411
BSTAR          = -.1803402E-1
MEAN_MOTION_DOT = -.1924003E-1
MEAN_MOTION_DDOT = 0

CCSDS_OMM_VERS = 2.0
CREATION_DATE  = 
ORIGINATOR     = 

OBJECT_NAME    = STARLINK-36540
OBJECT_ID      = 2026-012U
CENTER_NAME    = EARTH
REF_FRAME      = TEME
TIME_SYSTEM    = UTC
MEAN_ELEMENT_THEORY = SGP/SGP4

EPOCH          = 2026-02-07T06:00:02.999808
MEAN_MOTION    = 15.53193220
ECCENTRICITY   = .00010649
INCLINATION    = 42.9987
RA_OF_ASC_NODE = 128.6801
ARG_OF_PERICENTER = 273.5884
MEAN_ANOMALY   = 292.4152

EPHEMERIS_TYPE = 0
CLASSIFICATION_TYPE = U
NORAD_CAT_ID   = 67511
ELEMENT_SET_NO = 999
REV_AT_EPOCH   = 417
BSTAR          = -.3932237E-1
MEAN_MOTION_DOT = -.2234117E-1
MEAN_MOTION_DDOT = 0

