STARLINK-36557          
1 67500U 26012H   26038.25003472 -.01919913  00000+0 -17762-1 0  9999
2 67500  42.9997 128.1775 0001397 279.3119 129.7714 15.69625825  4175
STARLINK-36433          
1 67501U 26012J   26038.25003472 -.01929544  00000+0 -17586-1 0  9995
2 67501  42.9997 128.1577 0001457 277.5178 139.5692 15.69996356  4172
STARLINK-36554          
1 67502U 26012K   26038.25003472 -.01904605  00000+0 -21093-1 0  9995
2 67502  42.9993 128.2941 0001469 275.1611  87.0926 15.65234700  4119
STARLINK-36552          
1 67503U 26012L   26038.25003472 -.01927754  00000+0 -16827-1 0  9995
2 67503  42.9995 128.1101 0001336 277.4829 158.5351 15.71014774  4174
STARLINK-36512          
1 67504U 26012M   26038.25003472 -.01928919  00000+0 -18319-1 0  9998
2 67504  42.9997 128.1480 0001417 278.8498 141.7764 15.69014237  4177
STARLINK-36545          
1 67505U 26012N   26038.25003472 -.01927809  00000+0 -17883-1 0  9991
2 67505  42.9995 128.1250 0001361 277.5914 152.2819 15.69574380  4176
STARLINK-36553          
1 67506U 26012P   26038.25003472 -.01925229  00000+0 -16869-1 0  9999
2 67506  42.9993 128.0802 0001337 277.8473 170.0398 15.70921701  4178
STARLINK-36521          
1 67507U 26012Q   26038.25003472 -.01924084  00000+0 -16893-1 0  9995
2 67507  42.9993 128.0672 0001241 281.6990 171.1806 15.70872723  4170
STARLINK-36526          
1 67508U 26012R   26038.25003472 -.01932292  00000+0 -16983-1 0  9996
2 67508  42.9993 128.0534 0001264 276.2956 182.1046 15.70861074  4170
STARLINK-36541          
1 67509U 26012S   26038.25003472 -.02264608  00000+0 -40087-1 0  9999
2 67509  42.9989 128.7024 0000725 273.9108 283.0364 15.53091959  4117
STARLINK-36549          
1 67510U 26012T   26038.25003472 -.01924003  00000+0 -18034-1 0  9999
2 67510  42.9989 127.8646 0001017 270.3987 261.5369 15.69324602  4117
STARLINK-36540          
1 67511U 26012U   26038.25003472 -.02234117  00000+0 -39322-1 0  9994
2 67511  42.9987 128.6801 0001064 273.5884 292.4152 15.53193220  4173
